{"type": "FeatureCollection", "features": [ {"type": "Feature", "properties": {"norad_id": 33492, "name": "GOSAT (IBUKI)", "group": "resource", "lat": -44.49635350993383, "lon": -80.88051143503333, "alt_km": 675.9979662252244, "timestamp": "2025-12-24T16:52:41.156995+00:00", "meta": {"OBJECT_NAME": "GOSAT (IBUKI)", "OBJECT_ID": "2009-002A", "EPOCH": "2025-12-24T06:02:16.668384", "MEAN_MOTION": 14.67546519, "ECCENTRICITY": 0.00010131, "INCLINATION": 98.0771, "RA_OF_ASC_NODE": 106.695, "ARG_OF_PERICENTER": 104.5192, "MEAN_ANOMALY": 255.6125, "EPHEMERIS_TYPE": 0, "CLASSIFICATION_TYPE": "U", "NORAD_CAT_ID": 33492, "ELEMENT_SET_NO": 999, "REV_AT_EPOCH": 90580, "BSTAR": 0.00015641377, "MEAN_MOTION_DOT": 8.39e-06, "MEAN_MOTION_DDOT": 0}, "tle": {"line1": "1 33492U 09002A   25358.25158181  .00000839  00000+0  15641-3 0  9995", "line2": "2 33492  98.0771 106.6950 0001013 104.5192 255.6125 14.67546519905805"}}, "geometry": {"type": "Point", "coordinates": [-80.88051143503333, -44.49635350993383]}}, {"type": "Feature", "properties": {"norad_id": 35681, "name": "DEIMOS-1", "group": "resource", "lat": -78.50510255486175, "lon": -63.05991552417101, "alt_km": 654.2284568605983, "timestamp": "2025-12-24T16:52:41.157007+00:00", "meta": {"OBJECT_NAME": "DEIMOS-1", "OBJECT_ID": "2009-041A", "EPOCH": "2025-12-24T07:33:20.179296", "MEAN_MOTION": 14.74969193, "ECCENTRICITY": 0.00025047, "INCLINATION": 97.7155, "RA_OF_ASC_NODE": 158.3796, "ARG_OF_PERICENTER": 60.8153, "MEAN_ANOMALY": 299.3307, "EPHEMERIS_TYPE": 0, "CLASSIFICATION_TYPE": "U", "NORAD_CAT_ID": 35681, "ELEMENT_SET_NO": 999, "REV_AT_EPOCH": 88110, "BSTAR": 0.00010490674, "MEAN_MOTION_DOT": 6.58e-06, "MEAN_MOTION_DDOT": 0}, "tle": {"line1": "1 35681U 09041A   25358.31481689  .00000658  00000+0  10491-3 0  9996", "line2": "2 35681  97.7155 158.3796 0002504  60.8153 299.3307 14.74969193881106"}}, "geometry": {"type": "Point", "coordinates": [-63.05991552417101, -78.50510255486175]}}, {"type": "Feature", "properties": {"norad_id": 35682, "name": "DUBAISAT-1", "group": "resource", "lat": -1.8964980167215932, "lon": -51.05889626148778, "alt_km": 649.5422507299754, "timestamp": "2025-12-24T16:52:41.157018+00:00", "meta": {"OBJECT_NAME": "DUBAISAT-1", "OBJECT_ID": "2009-041B", "EPOCH": "2025-12-24T06:17:03.407136", "MEAN_MOTION": 14.74634332, "ECCENTRICITY": 0.00092703, "INCLINATION": 97.9797, "RA_OF_ASC_NODE": 128.7724, "ARG_OF_PERICENTER": 273.0676, "MEAN_ANOMALY": 86.9472, "EPHEMERIS_TYPE": 0, "CLASSIFICATION_TYPE": "U", "NORAD_CAT_ID": 35682, "ELEMENT_SET_NO": 999, "REV_AT_EPOCH": 87931, "BSTAR": 0.00019920706, "MEAN_MOTION_DOT": 1.279e-05, "MEAN_MOTION_DDOT": 0}, "tle": {"line1": "1 35682U 09041B   25358.26184499  .00001279  00000+0  19921-3 0  9997", "line2": "2 35682  97.9797 128.7724 0009270 273.0676  86.9472 14.74634332879315"}}, "geometry": {"type": "Point", "coordinates": [-51.05889626148778, -1.8964980167215932]}}, {"type": "Feature", "properties": {"norad_id": 35931, "name": "OCEANSAT-2", "group": "resource", "lat": 13.795554596288248, "lon": -3.9445912041859663, "alt_km": 884.4670306929356, "timestamp": "2025-12-24T16:52:41.157030+00:00", "meta": {"OBJECT_NAME": "OCEANSAT-2", "OBJECT_ID": "2009-051A", "EPOCH": "2025-12-24T06:31:03.561600", "MEAN_MOTION": 13.99622884, "ECCENTRICITY": 0.00159196, "INCLINATION": 98.2218, "RA_OF_ASC_NODE": 357.702, "ARG_OF_PERICENTER": 14.7473, "MEAN_ANOMALY": 345.4155, "EPHEMERIS_TYPE": 0, "CLASSIFICATION_TYPE": "U", "NORAD_CAT_ID": 35931, "ELEMENT_SET_NO": 999, "REV_AT_EPOCH": 85486, "BSTAR": -4.738766e-06, "MEAN_MOTION_DOT": -4.4e-07, "MEAN_MOTION_DDOT": 0}, "tle": {"line1": "1 35931U 09051A   25358.27156900 -.00000044  00000+0 -47388-5 0  9993", "line2": "2 35931  98.2218 357.7020 0015919  14.7473 345.4155 13.99622884854868"}}, "geometry": {"type": "Point", "coordinates": [-3.9445912041859663, 13.795554596288248]}}, {"type": "Feature", "properties": {"norad_id": 35946, "name": "WORLDVIEW-2 (WV-2)", "group": "resource", "lat": -25.425948703892562, "lon": 73.68920680971884, "alt_km": 770.2502659530464, "timestamp": "2025-12-24T16:52:41.157041+00:00", "meta": {"OBJECT_NAME": "WORLDVIEW-2 (WV-2)", "OBJECT_ID": "2009-055A", "EPOCH": "2025-12-24T05:18:20.153376", "MEAN_MOTION": 14.37728963, "ECCENTRICITY": 0.00047554, "INCLINATION": 98.4773, "RA_OF_ASC_NODE": 69.148, "ARG_OF_PERICENTER": 42.3913, "MEAN_ANOMALY": 317.764, "EPHEMERIS_TYPE": 0, "CLASSIFICATION_TYPE": "U", "NORAD_CAT_ID": 35946, "ELEMENT_SET_NO": 999, "REV_AT_EPOCH": 85050, "BSTAR": 7.1858021e-05, "MEAN_MOTION_DOT": 1.73e-06, "MEAN_MOTION_DDOT": 0}, "tle": {"line1": "1 35946U 09055A   25358.22106659  .00000173  00000+0  71858-4 0  9993", "line2": "2 35946  98.4773  69.1480 0004755  42.3913 317.7640 14.37728963850504"}}, "geometry": {"type": "Point", "coordinates": [73.68920680971884, -25.425948703892562]}}, {"type": "Feature", "properties": {"norad_id": 36036, "name": "SMOS", "group": "resource", "lat": 79.19988297255273, "lon": 54.66650053509054, "alt_km": 751.2200113793106, "timestamp": "2025-12-24T16:52:41.157051+00:00", "meta": {"OBJECT_NAME": "SMOS", "OBJECT_ID": "2009-059A", "EPOCH": "2025-12-24T06:25:22.684224", "MEAN_MOTION": 14.3975124, "ECCENTRICITY": 0.00010536, "INCLINATION": 98.4381, "RA_OF_ASC_NODE": 183.1454, "ARG_OF_PERICENTER": 83.6297, "MEAN_ANOMALY": 276.5011, "EPHEMERIS_TYPE": 0, "CLASSIFICATION_TYPE": "U", "NORAD_CAT_ID": 36036, "ELEMENT_SET_NO": 999, "REV_AT_EPOCH": 84828, "BSTAR": 0.00013712107, "MEAN_MOTION_DOT": 3.86e-06, "MEAN_MOTION_DDOT": 0}, "tle": {"line1": "1 36036U 09059A   25358.26762366  .00000386  00000+0  13712-3 0  9995", "line2": "2 36036  98.4381 183.1454 0001053  83.6297 276.5011 14.39751240848281"}}, "geometry": {"type": "Point", "coordinates": [54.66650053509054, 79.19988297255273]}}, {"type": "Feature", "properties": {"norad_id": 36110, "name": "YAOGAN-7", "group": "resource", "lat": 63.608726350325526, "lon": 76.94428387519301, "alt_km": 639.7349871104498, "timestamp": "2025-12-24T16:52:41.157062+00:00", "meta": {"OBJECT_NAME": "YAOGAN-7", "OBJECT_ID": "2009-069A", "EPOCH": "2025-12-24T06:36:22.373280", "MEAN_MOTION": 14.77748594, "ECCENTRICITY": 0.00234292, "INCLINATION": 98.0294, "RA_OF_ASC_NODE": 239.9907, "ARG_OF_PERICENTER": 241.966, "MEAN_ANOMALY": 117.918, "EPHEMERIS_TYPE": 0, "CLASSIFICATION_TYPE": "U", "NORAD_CAT_ID": 36110, "ELEMENT_SET_NO": 999, "REV_AT_EPOCH": 86379, "BSTAR": 9.5756308e-05, "MEAN_MOTION_DOT": 6.36e-06, "MEAN_MOTION_DDOT": 0}, "tle": {"line1": "1 36110U 09069A   25358.27525895  .00000636  00000+0  95756-4 0  9991", "line2": "2 36110  98.0294 239.9907 0023429 241.9660 117.9180 14.77748594863798"}}, "geometry": {"type": "Point", "coordinates": [76.94428387519301, 63.608726350325526]}}, {"type": "Feature", "properties": {"norad_id": 36605, "name": "TANDEM-X", "group": "resource", "lat": -18.569774843330745, "lon": 6.426464202668618, "alt_km": 513.9305549129349, "timestamp": "2025-12-24T16:52:41.157073+00:00", "meta": {"OBJECT_NAME": "TANDEM-X", "OBJECT_ID": "2010-030A", "EPOCH": "2025-12-23T10:55:27.931296", "MEAN_MOTION": 15.19148406, "ECCENTRICITY": 0.00017726, "INCLINATION": 97.4453, "RA_OF_ASC_NODE": 2.6785, "ARG_OF_PERICENTER": 93.7268, "MEAN_ANOMALY": 266.4169, "EPHEMERIS_TYPE": 0, "CLASSIFICATION_TYPE": "U", "NORAD_CAT_ID": 36605, "ELEMENT_SET_NO": 999, "REV_AT_EPOCH": 85996, "BSTAR": 4.175648e-05, "MEAN_MOTION_DOT": 8.1e-06, "MEAN_MOTION_DDOT": 0}, "tle": {"line1": "1 36605U 10030A   25357.45518439  .00000810  00000+0  41756-4 0  9990", "line2": "2 36605  97.4453   2.6785 0001772  93.7268 266.4169 15.19148406859964"}}, "geometry": {"type": "Point", "coordinates": [6.426464202668618, -18.569774843330745]}}, {"type": "Feature", "properties": {"norad_id": 36795, "name": "CARTOSAT-2B", "group": "resource", "lat": 80.92032674885094, "lon": -11.514285032124091, "alt_km": 619.5313027203074, "timestamp": "2025-12-24T16:52:41.157083+00:00", "meta": {"OBJECT_NAME": "CARTOSAT-2B", "OBJECT_ID": "2010-035A", "EPOCH": "2025-12-24T06:45:02.363040", "MEAN_MOTION": 14.78740039, "ECCENTRICITY": 0.00126335, "INCLINATION": 97.7834, "RA_OF_ASC_NODE": 46.9356, "ARG_OF_PERICENTER": 42.4235, "MEAN_ANOMALY": 317.7951, "EPHEMERIS_TYPE": 0, "CLASSIFICATION_TYPE": "U", "NORAD_CAT_ID": 36795, "ELEMENT_SET_NO": 999, "REV_AT_EPOCH": 83400, "BSTAR": 7.268716e-05, "MEAN_MOTION_DOT": 4.84e-06, "MEAN_MOTION_DDOT": 0}, "tle": {"line1": "1 36795U 10035A   25358.28127735  .00000484  00000+0  72687-4 0  9996", "line2": "2 36795  97.7834  46.9356 0012633  42.4235 317.7951 14.78740039834009"}}, "geometry": {"type": "Point", "coordinates": [-11.514285032124091, 80.92032674885094]}}, {"type": "Feature", "properties": {"norad_id": 36834, "name": "YAOGAN-10", "group": "resource", "lat": 58.162989677546335, "lon": 5.489458440724748, "alt_km": 608.1445973356722, "timestamp": "2025-12-24T16:52:41.157095+00:00", "meta": {"OBJECT_NAME": "YAOGAN-10", "OBJECT_ID": "2010-038A", "EPOCH": "2025-12-24T07:28:55.746912", "MEAN_MOTION": 14.84651505, "ECCENTRICITY": 0.0001428, "INCLINATION": 97.9131, "RA_OF_ASC_NODE": 18.0452, "ARG_OF_PERICENTER": 81.759, "MEAN_ANOMALY": 46.1879, "EPHEMERIS_TYPE": 0, "CLASSIFICATION_TYPE": "U", "NORAD_CAT_ID": 36834, "ELEMENT_SET_NO": 999, "REV_AT_EPOCH": 83125, "BSTAR": 0.00034659314, "MEAN_MOTION_DOT": 2.878e-05, "MEAN_MOTION_DDOT": 0}, "tle": {"line1": "1 36834U 10038A   25358.31175633  .00002878  00000+0  34659-3 0  9992", "line2": "2 36834  97.9131  18.0452 0001428  81.7590  46.1879 14.84651505831254"}}, "geometry": {"type": "Point", "coordinates": [5.489458440724748, 58.162989677546335]}}]}